{"type": "FeatureCollection", "features": [ {"type": "Feature", "properties": {"norad_id": 30467, "name": "FENGYUN 1C DEB", "group": "fengyun-1c-debris", "lat": -76.69291216194965, "lon": 165.4435349267019, "alt_km": 887.2616941652022, "timestamp": "2025-12-24T09:46:31.280699+00:00", "meta": {"OBJECT_NAME": "FENGYUN 1C DEB", "OBJECT_ID": "1999-025AGE", "EPOCH": "2025-12-23T00:38:09.528288", "MEAN_MOTION": 14.17309282, "ECCENTRICITY": 0.00651851, "INCLINATION": 98.6779, "RA_OF_ASC_NODE": 24.3145, "ARG_OF_PERICENTER": 98.3407, "MEAN_ANOMALY": 319.9669, "EPHEMERIS_TYPE": 0, "CLASSIFICATION_TYPE": "U", "NORAD_CAT_ID": 30467, "ELEMENT_SET_NO": 999, "REV_AT_EPOCH": 97323, "BSTAR": 0.00078321719, "MEAN_MOTION_DOT": 1.574e-05, "MEAN_MOTION_DDOT": 0}, "tle": {"line1": "1 30467U 99025AGE 25357.02649917  .00001574  00000+0  78322-3 0  9996", "line2": "2 30467  98.6779  24.3145 0065185  98.3407 319.9669 14.17309282973237"}}, "geometry": {"type": "Point", "coordinates": [165.4435349267019, -76.69291216194965]}}, {"type": "Feature", "properties": {"norad_id": 30468, "name": "FENGYUN 1C DEB", "group": "fengyun-1c-debris", "lat": -5.751664976459828, "lon": 80.91922160121685, "alt_km": 776.003903218174, "timestamp": "2025-12-24T09:46:31.280710+00:00", "meta": {"OBJECT_NAME": "FENGYUN 1C DEB", "OBJECT_ID": "1999-025AGF", "EPOCH": "2025-12-23T05:11:24.108864", "MEAN_MOTION": 14.2076911, "ECCENTRICITY": 0.00713808, "INCLINATION": 98.9215, "RA_OF_ASC_NODE": 78.8107, "ARG_OF_PERICENTER": 9.42, "MEAN_ANOMALY": 16.4672, "EPHEMERIS_TYPE": 0, "CLASSIFICATION_TYPE": "U", "NORAD_CAT_ID": 30468, "ELEMENT_SET_NO": 999, "REV_AT_EPOCH": 96959, "BSTAR": 0.0014073656, "MEAN_MOTION_DOT": 3.072e-05, "MEAN_MOTION_DDOT": 0}, "tle": {"line1": "1 30468U 99025AGF 25357.21625126  .00003072  00000+0  14074-2 0  9992", "line2": "2 30468  98.9215  78.8107 0071380   9.4200  16.4672 14.20769110969597"}}, "geometry": {"type": "Point", "coordinates": [80.91922160121685, -5.751664976459828]}}, {"type": "Feature", "properties": {"norad_id": 30469, "name": "FENGYUN 1C DEB", "group": "fengyun-1c-debris", "lat": 43.59970627737496, "lon": -159.95961678692126, "alt_km": 905.7406173855479, "timestamp": "2025-12-24T09:46:31.280720+00:00", "meta": {"OBJECT_NAME": "FENGYUN 1C DEB", "OBJECT_ID": "1999-025AGG", "EPOCH": "2025-12-24T03:17:39.518880", "MEAN_MOTION": 13.96540954, "ECCENTRICITY": 0.0158683, "INCLINATION": 98.4787, "RA_OF_ASC_NODE": 207.9576, "ARG_OF_PERICENTER": 137.7544, "MEAN_ANOMALY": 351.4434, "EPHEMERIS_TYPE": 0, "CLASSIFICATION_TYPE": "U", "NORAD_CAT_ID": 30469, "ELEMENT_SET_NO": 999, "REV_AT_EPOCH": 95865, "BSTAR": 0.00067492, "MEAN_MOTION_DOT": 1e-05, "MEAN_MOTION_DDOT": 0}, "tle": {"line1": "1 30469U 99025AGG 25358.13726295  .00001000  00000+0  67492-3 0  9996", "line2": "2 30469  98.4787 207.9576 0158683 137.7544 351.4434 13.96540954958658"}}, "geometry": {"type": "Point", "coordinates": [-159.95961678692126, 43.59970627737496]}}, {"type": "Feature", "properties": {"norad_id": 30471, "name": "FENGYUN 1C DEB", "group": "fengyun-1c-debris", "lat": 41.28420850410493, "lon": -85.79976783348228, "alt_km": 835.4883461895206, "timestamp": "2025-12-24T09:46:31.280730+00:00", "meta": {"OBJECT_NAME": "FENGYUN 1C DEB", "OBJECT_ID": "1999-025AGJ", "EPOCH": "2025-12-23T04:31:34.853376", "MEAN_MOTION": 14.13690299, "ECCENTRICITY": 0.00834076, "INCLINATION": 99.0535, "RA_OF_ASC_NODE": 84.9191, "ARG_OF_PERICENTER": 224.3853, "MEAN_ANOMALY": 195.6229, "EPHEMERIS_TYPE": 0, "CLASSIFICATION_TYPE": "U", "NORAD_CAT_ID": 30471, "ELEMENT_SET_NO": 999, "REV_AT_EPOCH": 96590, "BSTAR": 0.0017646418, "MEAN_MOTION_DOT": 3.401e-05, "MEAN_MOTION_DDOT": 0}, "tle": {"line1": "1 30471U 99025AGJ 25357.18859784  .00003401  00000+0  17646-2 0  9995", "line2": "2 30471  99.0535  84.9191 0083407 224.3853 195.6229 14.13690299965906"}}, "geometry": {"type": "Point", "coordinates": [-85.79976783348228, 41.28420850410493]}}, {"type": "Feature", "properties": {"norad_id": 30472, "name": "FENGYUN 1C DEB", "group": "fengyun-1c-debris", "lat": 45.62207684479233, "lon": -71.1482505406924, "alt_km": 708.6684444758612, "timestamp": "2025-12-24T09:46:31.280741+00:00", "meta": {"OBJECT_NAME": "FENGYUN 1C DEB", "OBJECT_ID": "1999-025AGK", "EPOCH": "2025-12-23T18:59:46.239360", "MEAN_MOTION": 14.5397977, "ECCENTRICITY": 0.00374221, "INCLINATION": 98.6514, "RA_OF_ASC_NODE": 99.2643, "ARG_OF_PERICENTER": 45.3013, "MEAN_ANOMALY": 106.464, "EPHEMERIS_TYPE": 0, "CLASSIFICATION_TYPE": "U", "NORAD_CAT_ID": 30472, "ELEMENT_SET_NO": 999, "REV_AT_EPOCH": 98201, "BSTAR": 0.0021149756, "MEAN_MOTION_DOT": 8.955e-05, "MEAN_MOTION_DDOT": 0}, "tle": {"line1": "1 30472U 99025AGK 25357.79150740  .00008955  00000+0  21150-2 0  9993", "line2": "2 30472  98.6514  99.2643 0037422  45.3013 106.4640 14.53979770982011"}}, "geometry": {"type": "Point", "coordinates": [-71.1482505406924, 45.62207684479233]}}, {"type": "Feature", "properties": {"norad_id": 30474, "name": "FENGYUN 1C DEB", "group": "fengyun-1c-debris", "lat": 54.511635331282, "lon": 65.00307129017142, "alt_km": 760.0435614364014, "timestamp": "2025-12-24T09:46:31.280750+00:00", "meta": {"OBJECT_NAME": "FENGYUN 1C DEB", "OBJECT_ID": "1999-025AGM", "EPOCH": "2025-12-23T00:41:54.152736", "MEAN_MOTION": 14.37882203, "ECCENTRICITY": 0.0023165, "INCLINATION": 98.928, "RA_OF_ASC_NODE": 76.3091, "ARG_OF_PERICENTER": 330.1899, "MEAN_ANOMALY": 155.0116, "EPHEMERIS_TYPE": 0, "CLASSIFICATION_TYPE": "U", "NORAD_CAT_ID": 30474, "ELEMENT_SET_NO": 999, "REV_AT_EPOCH": 97541, "BSTAR": 0.0022303734, "MEAN_MOTION_DOT": 6.709e-05, "MEAN_MOTION_DDOT": 0}, "tle": {"line1": "1 30474U 99025AGM 25357.02909899  .00006709  00000+0  22304-2 0  9995", "line2": "2 30474  98.9280  76.3091 0023165 330.1899 155.0116 14.37882203975415"}}, "geometry": {"type": "Point", "coordinates": [65.00307129017142, 54.511635331282]}}, {"type": "Feature", "properties": {"norad_id": 30475, "name": "FENGYUN 1C DEB", "group": "fengyun-1c-debris", "lat": -81.1690278164955, "lon": 124.38065760293155, "alt_km": 817.005896671968, "timestamp": "2025-12-24T09:46:31.280760+00:00", "meta": {"OBJECT_NAME": "FENGYUN 1C DEB", "OBJECT_ID": "1999-025AGN", "EPOCH": "2025-12-24T01:51:10.833408", "MEAN_MOTION": 14.15713628, "ECCENTRICITY": 0.0043074, "INCLINATION": 98.7871, "RA_OF_ASC_NODE": 39.4416, "ARG_OF_PERICENTER": 257.949, "MEAN_ANOMALY": 131.3364, "EPHEMERIS_TYPE": 0, "CLASSIFICATION_TYPE": "U", "NORAD_CAT_ID": 30475, "ELEMENT_SET_NO": 999, "REV_AT_EPOCH": 97112, "BSTAR": 0.00075394, "MEAN_MOTION_DOT": 1.448e-05, "MEAN_MOTION_DDOT": 0}, "tle": {"line1": "1 30475U 99025AGN 25358.07720872  .00001448  00000+0  75394-3 0  9997", "line2": "2 30475  98.7871  39.4416 0043074 257.9490 131.3364 14.15713628971121"}}, "geometry": {"type": "Point", "coordinates": [124.38065760293155, -81.1690278164955]}}, {"type": "Feature", "properties": {"norad_id": 30476, "name": "FENGYUN 1C DEB", "group": "fengyun-1c-debris", "lat": -66.9924232776098, "lon": -166.2589176843376, "alt_km": 798.0136241643504, "timestamp": "2025-12-24T09:46:31.280770+00:00", "meta": {"OBJECT_NAME": "FENGYUN 1C DEB", "OBJECT_ID": "1999-025AGP", "EPOCH": "2025-12-24T02:06:16.567200", "MEAN_MOTION": 14.20974418, "ECCENTRICITY": 0.0045342, "INCLINATION": 99.1239, "RA_OF_ASC_NODE": 35.6493, "ARG_OF_PERICENTER": 266.6262, "MEAN_ANOMALY": 148.1865, "EPHEMERIS_TYPE": 0, "CLASSIFICATION_TYPE": "U", "NORAD_CAT_ID": 30476, "ELEMENT_SET_NO": 999, "REV_AT_EPOCH": 97006, "BSTAR": 0.0013987, "MEAN_MOTION_DOT": 3.016e-05, "MEAN_MOTION_DDOT": 0}, "tle": {"line1": "1 30476U 99025AGP 25358.08769175  .00003016  00000+0  13987-2 0  9990", "line2": "2 30476  99.1239  35.6493 0045342 266.6262 148.1865 14.20974418970068"}}, "geometry": {"type": "Point", "coordinates": [-166.2589176843376, -66.9924232776098]}}, {"type": "Feature", "properties": {"norad_id": 30477, "name": "FENGYUN 1C DEB", "group": "fengyun-1c-debris", "lat": 40.68262572023095, "lon": -91.42888916805622, "alt_km": 1268.8784956357413, "timestamp": "2025-12-24T09:46:31.280780+00:00", "meta": {"OBJECT_NAME": "FENGYUN 1C DEB", "OBJECT_ID": "1999-025AGQ", "EPOCH": "2025-12-23T11:23:23.084736", "MEAN_MOTION": 13.23861363, "ECCENTRICITY": 0.04350664, "INCLINATION": 99.4249, "RA_OF_ASC_NODE": 79.5166, "ARG_OF_PERICENTER": 251.2901, "MEAN_ANOMALY": 128.9103, "EPHEMERIS_TYPE": 0, "CLASSIFICATION_TYPE": "U", "NORAD_CAT_ID": 30477, "ELEMENT_SET_NO": 999, "REV_AT_EPOCH": 90861, "BSTAR": 0.0027072899, "MEAN_MOTION_DOT": 1.869e-05, "MEAN_MOTION_DDOT": 0}, "tle": {"line1": "1 30477U 99025AGQ 25357.47457274  .00001869  00000+0  27073-2 0  9992", "line2": "2 30477  99.4249  79.5166 0435066 251.2901 128.9103 13.23861363908612"}}, "geometry": {"type": "Point", "coordinates": [-91.42888916805622, 40.68262572023095]}}, {"type": "Feature", "properties": {"norad_id": 30480, "name": "FENGYUN 1C DEB", "group": "fengyun-1c-debris", "lat": 20.921232044949495, "lon": -164.18301153266864, "alt_km": 698.2316953374102, "timestamp": "2025-12-24T09:46:31.280790+00:00", "meta": {"OBJECT_NAME": "FENGYUN 1C DEB", "OBJECT_ID": "1999-025AGS", "EPOCH": "2025-12-24T00:57:11.070144", "MEAN_MOTION": 14.33614376, "ECCENTRICITY": 0.0166748, "INCLINATION": 98.2232, "RA_OF_ASC_NODE": 12.2984, "ARG_OF_PERICENTER": 112.0793, "MEAN_ANOMALY": 309.1972, "EPHEMERIS_TYPE": 0, "CLASSIFICATION_TYPE": "U", "NORAD_CAT_ID": 30480, "ELEMENT_SET_NO": 999, "REV_AT_EPOCH": 98830, "BSTAR": 0.00020149, "MEAN_MOTION_DOT": 6.09e-06, "MEAN_MOTION_DDOT": 0}, "tle": {"line1": "1 30480U 99025AGS 25358.03971146  .00000609  00000+0  20149-3 0  9997", "line2": "2 30480  98.2232  12.2984 0166748 112.0793 309.1972 14.33614376988301"}}, "geometry": {"type": "Point", "coordinates": [-164.18301153266864, 20.921232044949495]}}]}